start=new Date('2022-02-22T00:00:00.000Z').valueOf();
sats=[{"MEAN_ELEMENT_THEORY":"SGP4","FILE":"3312023","INCLINATION":"53.0547","MEAN_MOTION_DOT":"0.00003649","RA_OF_ASC_NODE":"97.8570","COUNTRY_CODE":"US","CENTER_NAME":"EARTH","TLE_LINE2":"2 44966  53.0547  97.8570 0001456  72.1365 287.9783 15.06407757117769","RCS_SIZE":"LARGE","MEAN_MOTION":"15.06407757","EPOCH":"2022-02-21T12:40:10.924608","PERIOD":"95.592","PERIAPSIS":"546.181","OBJECT_TYPE":"PAYLOAD","REF_FRAME":"TEME","ECCENTRICITY":"0.00014560","MEAN_MOTION_DDOT":"0.0000000000000","BSTAR":"0.00026370000000","CLASSIFICATION_TYPE":"U","DECAY_DATE":null,"NORAD_CAT_ID":"44966","EPHEMERIS_TYPE":"0","APOAPSIS":"548.198","ARG_OF_PERICENTER":"72.1365","TLE_LINE1":"1 44966U 20001BE  22052.52790422  .00003649  00000-0  26370-3 0  9997","SITE":"AFETR","TIME_SYSTEM":"UTC","OBJECT_ID":"2020-001BE","SEMIMAJOR_AXIS":"6925.325","MEAN_ANOMALY":"287.9783","ELEMENT_SET_NO":"999","REV_AT_EPOCH":"11776","OBJECT_NAME":"STARLINK-1088","LAUNCH_DATE":"2020-01-07","GP_ID":"196569697"},{"ELEMENT_SET_NO":"999","OBJECT_NAME":"STARLINK-1089","REV_AT_EPOCH":"11781","LAUNCH_DATE":"2020-01-07","OBJECT_ID":"2020-001BF","TIME_SYSTEM":"UTC","SEMIMAJOR_AXIS":"6925.379","MEAN_ANOMALY":"293.3221","GP_ID":"196570947","ECCENTRICITY":"0.00014900","MEAN_MOTION_DDOT":"0.0000000000000","PERIAPSIS":"546.212","REF_FRAME":"TEME","OBJECT_TYPE":"PAYLOAD","ARG_OF_PERICENTER":"66.7925","SITE":"AFETR","TLE_LINE1":"1 44967U 20001BF  22052.81541615 -.00000910  00000-0 -42245-4 0  9998","BSTAR":"-0.00004224500000","CLASSIFICATION_TYPE":"U","DECAY_DATE":null,"NORAD_CAT_ID":"44967","EPHEMERIS_TYPE":"0","APOAPSIS":"548.276","RCS_SIZE":"LARGE","MEAN_MOTION":"15.06390022","EPOCH":"2022-02-21T19:34:11.955360","PERIOD":"95.593","MEAN_MOTION_DOT":"-0.00000910","RA_OF_ASC_NODE":"96.5769","MEAN_ELEMENT_THEORY":"SGP4","FILE":"3312023","INCLINATION":"53.0552","CENTER_NAME":"EARTH","COUNTRY_CODE":"US","TLE_LINE2":"2 44967  53.0552  96.5769 0001490  66.7925 293.3221 15.06390022117811"},{"ELEMENT_SET_NO":"999","LAUNCH_DATE":"2020-01-07","OBJECT_NAME":"STARLINK-1090","REV_AT_EPOCH":"11781","SEMIMAJOR_AXIS":"6925.357","OBJECT_ID":"2020-001BG","TIME_SYSTEM":"UTC","MEAN_ANOMALY":"299.9230","GP_ID":"196571202","ECCENTRICITY":"0.00017150","MEAN_MOTION_DDOT":"0.0000000000000","PERIAPSIS":"546.034","OBJECT_TYPE":"PAYLOAD","REF_FRAME":"TEME","ARG_OF_PERICENTER":"60.1929","SITE":"AFETR","TLE_LINE1":"1 44968U 20001BG  22052.81172613  .00000842  00000-0  75431-4 0  9992","DECAY_DATE":null,"NORAD_CAT_ID":"44968","CLASSIFICATION_TYPE":"U","BSTAR":"0.00007543100000","APOAPSIS":"548.409","EPHEMERIS_TYPE":"0","RCS_SIZE":"LARGE","EPOCH":"2022-02-21T19:28:53.137632","PERIOD":"95.592","MEAN_MOTION":"15.06397355","RA_OF_ASC_NODE":"96.5837","MEAN_MOTION_DOT":"0.00000842","MEAN_ELEMENT_THEORY":"SGP4","INCLINATION":"53.0538","FILE":"3312023","CENTER_NAME":"EARTH","COUNTRY_CODE":"US","TLE_LINE2":"2 44968  53.0538  96.5837 0001715  60.1929 299.9230 15.06397355117812"},{"ECCENTRICITY":"0.00014910","MEAN_MOTION_DDOT":"0.0000000000000","PERIAPSIS":"546.164","REF_FRAME":"TEME","OBJECT_TYPE":"PAYLOAD","ARG_OF_PERICENTER":"65.4948","SITE":"AFETR","TLE_LINE1":"1 44969U 20001BH  22052.53896182  .00000496  00000-0  52215-4 0  9996","CLASSIFICATION_TYPE":"U","BSTAR":"0.00005221500000","NORAD_CAT_ID":"44969","DECAY_DATE":null,"APOAPSIS":"548.229","EPHEMERIS_TYPE":"0","ELEMENT_SET_NO":"999","REV_AT_EPOCH":"11776","OBJECT_NAME":"STARLINK-1092","LAUNCH_DATE":"2020-01-07","OBJECT_ID":"2020-001BH","TIME_SYSTEM":"UTC","SEMIMAJOR_AXIS":"6925.331","MEAN_ANOMALY":"294.6196","GP_ID":"196569949","MEAN_MOTION_DOT":"0.00000496","RA_OF_ASC_NODE":"97.8065","MEAN_ELEMENT_THEORY":"SGP4","FILE":"3312023","INCLINATION":"53.0534","CENTER_NAME":"EARTH","COUNTRY_CODE":"US","TLE_LINE2":"2 44969  53.0534  97.8065 0001491  65.4948 294.6196 15.06405584117767","RCS_SIZE":"LARGE","MEAN_MOTION":"15.06405584","PERIOD":"95.592","EPOCH":"2022-02-21T12:56:06.301248"},{"CENTER_NAME":"EARTH","COUNTRY_CODE":"US","TLE_LINE2":"2 44970  53.0523  96.4183 0001255  79.2808 280.8323 15.06391500117805","MEAN_ELEMENT_THEORY":"SGP4","FILE":"3312023","INCLINATION":"53.0523","MEAN_MOTION_DOT":"-0.00000740","RA_OF_ASC_NODE":"96.4183","MEAN_MOTION":"15.06391500","PERIOD":"95.593","EPOCH":"2022-02-21T20:21:58.163904","RCS_SIZE":"LARGE","CLASSIFICATION_TYPE":"U","BSTAR":"-0.00003083400000","DECAY_DATE":null,"NORAD_CAT_ID":"44970","APOAPSIS":"548.109","EPHEMERIS_TYPE":"0","ARG_OF_PERICENTER":"79.2808","SITE":"AFETR","TLE_LINE1":"1 44970U 20001BJ  22052.84858986 -.00000740  00000-0 -30834-4 0  9999","PERIAPSIS":"546.370","OBJECT_TYPE":"PAYLOAD","REF_FRAME":"TEME","ECCENTRICITY":"0.00012550","MEAN_MOTION_DDOT":"0.0000000000000","GP_ID":"196570198","TIME_SYSTEM":"UTC","OBJECT_ID":"2020-001BJ","SEMIMAJOR_AXIS":"6925.375","MEAN_ANOMALY":"280.8323","ELEMENT_SET_NO":"999","REV_AT_EPOCH":"11780","OBJECT_NAME":"STARLINK-1093","LAUNCH_DATE":"2020-01-07"},{"NORAD_CAT_ID":"44972","DECAY_DATE":null,"CLASSIFICATION_TYPE":"U","BSTAR":"0.00004634600000","EPHEMERIS_TYPE":"0","APOAPSIS":"548.264","ARG_OF_PERICENTER":"71.4301","SITE":"AFETR","TLE_LINE1":"1 44972U 20001BL  22052.81909199  .00000409  00000-0  46346-4 0  9996","PERIAPSIS":"546.175","REF_FRAME":"TEME","OBJECT_TYPE":"PAYLOAD","ECCENTRICITY":"0.00015080","MEAN_MOTION_DDOT":"0.0000000000000","GP_ID":"196570447","SEMIMAJOR_AXIS":"6925.354","OBJECT_ID":"2020-001BL","TIME_SYSTEM":"UTC","MEAN_ANOMALY":"288.6851","ELEMENT_SET_NO":"999","LAUNCH_DATE":"2020-01-07","OBJECT_NAME":"STARLINK-1107","REV_AT_EPOCH":"11781","CENTER_NAME":"EARTH","COUNTRY_CODE":"US","TLE_LINE2":"2 44972  53.0561  96.5407 0001508  71.4301 288.6851 15.06398125117815","MEAN_ELEMENT_THEORY":"SGP4","INCLINATION":"53.0561","FILE":"3312023","RA_OF_ASC_NODE":"96.5407","MEAN_MOTION_DOT":"0.00000409","EPOCH":"2022-02-21T19:39:29.547936","PERIOD":"95.592","MEAN_MOTION":"15.06398125","RCS_SIZE":"LARGE"},{"RCS_SIZE":"LARGE","MEAN_MOTION":"15.06401056","EPOCH":"2022-02-21T09:34:25.047264","PERIOD":"95.592","MEAN_MOTION_DOT":"-0.00000411","RA_OF_ASC_NODE":"98.4461","FILE":"3312023","INCLINATION":"53.0541","MEAN_ELEMENT_THEORY":"SGP4","TLE_LINE2":"2 44973  53.0541  98.4461 0001455  68.3597 291.7547 15.06401056117745","COUNTRY_CODE":"US","CENTER_NAME":"EARTH","REV_AT_EPOCH":"11774","OBJECT_NAME":"STARLINK-1115","LAUNCH_DATE":"2020-01-07","ELEMENT_SET_NO":"999","MEAN_ANOMALY":"291.7547","OBJECT_ID":"2020-001BM","TIME_SYSTEM":"UTC","SEMIMAJOR_AXIS":"6925.345","GP_ID":"196570702","MEAN_MOTION_DDOT":"0.0000000000000","ECCENTRICITY":"0.00014550","REF_FRAME":"TEME","OBJECT_TYPE":"PAYLOAD","PERIAPSIS":"546.203","TLE_LINE1":"1 44973U 20001BM  22052.39890101 -.00000411  00000-0 -86851-5 0  9993","SITE":"AFETR","ARG_OF_PERICENTER":"68.3597","APOAPSIS":"548.218","EPHEMERIS_TYPE":"0","BSTAR":"-0.00000868510000","CLASSIFICATION_TYPE":"U","NORAD_CAT_ID":"44973","DECAY_DATE":null},{"GP_ID":"196571209","OBJECT_NAME":"STARLINK-1132","REV_AT_EPOCH":"11412","LAUNCH_DATE":"2020-01-29","ELEMENT_SET_NO":"999","MEAN_ANOMALY":"302.4516","TIME_SYSTEM":"UTC","OBJECT_ID":"2020-006A","SEMIMAJOR_AXIS":"6925.366","SITE":"AFETR","TLE_LINE1":"1 45044U 20006A   22052.70483463  .00000821  00000-0  74049-4 0  9990","ARG_OF_PERICENTER":"57.6622","EPHEMERIS_TYPE":"0","APOAPSIS":"548.299","BSTAR":"0.00007404900000","CLASSIFICATION_TYPE":"U","DECAY_DATE":null,"NORAD_CAT_ID":"45044","MEAN_MOTION_DDOT":"0.0000000000000","ECCENTRICITY":"0.00015420","REF_FRAME":"TEME","OBJECT_TYPE":"PAYLOAD","PERIAPSIS":"546.163","MEAN_MOTION":"15.06394312","EPOCH":"2022-02-21T16:54:57.712032","PERIOD":"95.593","RCS_SIZE":"LARGE","TLE_LINE2":"2 45044  53.0555  57.0681 0001542  57.6622 302.4516 15.06394312114123","CENTER_NAME":"EARTH","COUNTRY_CODE":"US","MEAN_MOTION_DOT":"0.00000821","RA_OF_ASC_NODE":"57.0681","FILE":"3312023","INCLINATION":"53.0555","MEAN_ELEMENT_THEORY":"SGP4"},{"TLE_LINE2":"2 45045  53.0544  76.8172 0001472  67.8632 292.2513 15.06397688113853","COUNTRY_CODE":"US","CENTER_NAME":"EARTH","RA_OF_ASC_NODE":"76.8172","MEAN_MOTION_DOT":"0.00000825","INCLINATION":"53.0544","FILE":"3312023","MEAN_ELEMENT_THEORY":"SGP4","EPOCH":"2022-02-21T18:11:56.128128","PERIOD":"95.592","MEAN_MOTION":"15.06397688","RCS_SIZE":"LARGE","SITE":"AFETR","TLE_LINE1":"1 45045U 20006B   22052.75828852  .00000825  00000-0  74264-4 0  9994","ARG_OF_PERICENTER":"67.8632","EPHEMERIS_TYPE":"0","APOAPSIS":"548.240","DECAY_DATE":null,"NORAD_CAT_ID":"45045","CLASSIFICATION_TYPE":"U","BSTAR":"0.00007426400000","MEAN_MOTION_DDOT":"0.0000000000000","ECCENTRICITY":"0.00014720","REF_FRAME":"TEME","OBJECT_TYPE":"PAYLOAD","PERIAPSIS":"546.201","GP_ID":"196569956","LAUNCH_DATE":"2020-01-29","OBJECT_NAME":"STARLINK-1120","REV_AT_EPOCH":"11385","ELEMENT_SET_NO":"999","MEAN_ANOMALY":"292.2513","SEMIMAJOR_AXIS":"6925.356","OBJECT_ID":"2020-006B","TIME_SYSTEM":"UTC"},{"PERIAPSIS":"534.116","OBJECT_TYPE":"PAYLOAD","REF_FRAME":"TEME","ECCENTRICITY":"0.00017690","MEAN_MOTION_DDOT":"0.0000000000000","DECAY_DATE":null,"NORAD_CAT_ID":"45046","CLASSIFICATION_TYPE":"U","BSTAR":"0.00074243000000","EPHEMERIS_TYPE":"0","APOAPSIS":"536.562","ARG_OF_PERICENTER":"74.8096","TLE_LINE1":"1 45046U 20006C   22052.32515394  .00012024  00000-0  74243-3 0  9992","SITE":"AFETR","SEMIMAJOR_AXIS":"6913.474","TIME_SYSTEM":"UTC","OBJECT_ID":"2020-006C","MEAN_ANOMALY":"285.3090","ELEMENT_SET_NO":"999","LAUNCH_DATE":"2020-01-29","OBJECT_NAME":"STARLINK-1129","REV_AT_EPOCH":"11384","GP_ID":"196570205","MEAN_ELEMENT_THEORY":"SGP4","INCLINATION":"52.9974","FILE":"3312023","RA_OF_ASC_NODE":"72.3826","MEAN_MOTION_DOT":"0.00012024","COUNTRY_CODE":"US","CENTER_NAME":"EARTH","TLE_LINE2":"2 45046  52.9974  72.3826 0001769  74.8096 285.3090 15.10282871113841","RCS_SIZE":"LARGE","EPOCH":"2022-02-21T07:48:13.300416","PERIOD":"95.346","MEAN_MOTION":"15.10282871"}];
